"174567 Varda:Varda:2003 MW12" "Sol"
{
	Class	"asteroid"
	Texture	"asteroid.*"
	Color	[ 0.557 0.519 0.472 ]
	BlendTexture	true
	Radius	383  # equatorial
	Oblateness	0.235  # 5.91 h period
	# Density	1780
	OrbitFrame
	{
		EquatorJ2000	{ Center "Sol/Varda-Ilmarë" }
	}
	EllipticalOrbit  # orbit 1
	{
		Epoch	2455300.0  # 2010 Apr 13 12:00 UT
		Period	5.75083
		SemiMajorAxis	670  # separation = 4820 km, assumed mass ratio = 0.16
		Eccentricity	0.017
		Inclination	101.0
		MeanLongitude	275.6
		AscendingNode	3.0
		LongOfPericenter	124
	}
	BodyFrame	{ EquatorJ2000 {} }
	UniformRotation
	{
		Period	5.91
		Inclination	79  # B = -56°
		AscendingNode	21  # position angle = 67°
	}
	LunarLambert	1
	GeomAlbedo	0.099
	InfoURL	"https://en.wikipedia.org/wiki/174567_Varda"
}

# Size and albedo from Kiss et al., EPSC-DPS2025-905
#   "ALMA submm measurements of the trans-Neptunian binary system satellites
#   Ilmarë, Actaea, Hi’iaka and Namaka"
#   https://meetingorganizer.copernicus.org/EPSC-DPS2025/EPSC-DPS2025-905.html
# Orbit from Grundy et al. (2015), Icarus 257, p. 130-138
#   "The mutual orbit, mass, and density of the large transneptunian binary system Varda and Ilmarë"
#   https://ui.adsabs.harvard.edu/abs/2015Icar..257..130G/abstract
#   (Period, SMA and eccentricity from http://www2.lowell.edu/users/grundy/tnbs/174567_2003_MW12_Varda.html)
"Ilmarë:174567 Varda I:Varda I" "Sol/Varda"
{
	Class	"asteroid"
	Mesh	"roughsphere.cms"
	Texture	"asteroid.*"
	Color	[ 0.478 0.429 0.386 ]
	BlendTexture	true
	Radius	201.5
	OrbitFrame
	{
		EquatorJ2000	{ Center "Sol/Varda-Ilmarë" }
	}
	EllipticalOrbit  # orbit 1
	{
		Epoch	2455300.0  # 2010 Apr 13 12:00 UT
		Period	5.75083
		SemiMajorAxis	4150  # separation = 4820 km, assumed mass ratio = 0.16
		Eccentricity	0.017
		Inclination	101.0
		MeanLongitude	95.6
		AscendingNode	3.0
		LongOfPericenter	304
	}
	BodyFrame	{ EquatorJ2000 {} }
	UniformRotation  # to match orbit
	{
		Epoch	2455300.0  # 2010 Apr 13 12:00 UT
		Inclination	101.0
		AscendingNode	3.0
		MeridianAngle	272.6
	}
	LunarLambert	1
	GeomAlbedo	0.068
	InfoURL	"https://en.wikipedia.org/wiki/Ilmar%C3%AB_(moon)"
}

# Dias-Oliveira et al. (2017), AJ 154 (1), 22
#   "Study of the Plutino Object (208996) 2003 AZ84 from Stellar
#   Occultations: Size, Shape, and Topographic Features"
#   https://ui.adsabs.harvard.edu/abs/2017AJ....154...22D/abstract
"208996 Achlys:Achlys:2003 AZ84" "Sol"
{
	Class	"asteroid"
	Texture	"asteroid.*"
	Color	[ 0.514 0.509 0.5 ]
	BlendTexture	true
	SemiAxes	[ 470 383 245 ]  # hydrostatic equilibrium assumed
	# Density	870  # 0.87 +/- 0.01 g cm-3
	OrbitFrame
	{
		EclipticJ2000	{ Center "SSB" }
	}
	EllipticalOrbit
	{
		Epoch	2451545.0  # 2000 Jan 01 12:00
		Period	247.7991843073797
		SemiMajorAxis	39.46891923380872
		Eccentricity	0.1790440875629972
		Inclination	13.56505527753243
		AscendingNode	252.0309374439046
		ArgOfPericenter	15.12394431970204
		MeanAnomaly	204.5459197138737
	}
	UniformRotation  # average of two occultations
	{
		Epoch	2456977.2473  # 2014 Nov 15 17:55 UT
		Period	6.7874  # Santos-Sanz et al. (2017), 2017A&A...604A..95S
		Inclination	68  # B = 50°
		AscendingNode	349  # P_p = 78°
		MeridianAngle	326  # Q = 10° at epoch (light-time corrected)
	}
	LunarLambert	1
	GeomAlbedo	0.094  # Ortiz et al. (2019), arXiv:1905.04335
	InfoURL	"https://en.wikipedia.org/wiki/208996_Achlys"
}

# Grundy et al. (2019), Icarus 334, p. 30-38
#   "The mutual orbit, mass, and density of transneptunian binary Gǃkúnǁ'hòmdímà (229762 2007 UK126)"
#   http://www2.lowell.edu/users/grundy/abstracts/2019.G-G.html
# Dimensions and albedo from Ortiz et al. (2019), chapter from "The Trans-Neptunian Solar System"
#   "Stellar Occultations by Transneptunian objects: from Predictions to Observations
#   and Prospects for the Future"
#   https://arxiv.org/abs/1905.04335
"229762 G!kun||'homdima:G!kun||'homdima:2007 UK126" "Sol"
{
	Class	"asteroid"
	Texture	"asteroid.*"
	Color	[ 0.677 0.616 0.533 ]
	BlendTexture	true
	SemiAxes	[ 339 339 305.7 ]
	Mass<kg>	1.361e20  # system mass
	OrbitFrame
	{
		EclipticJ2000	{ Center "SSB" }
	}
	EllipticalOrbit
	{
		Epoch	2451545.0  # 2000 Jan 01 12:00
		Period	628.9177436276161
		SemiMajorAxis	73.43750009514187
		Eccentricity	0.4887391826728011
		Inclination	23.35736855320554
		AscendingNode	131.17839454295
		ArgOfPericenter	346.4333576250627
		MeanAnomaly	333.5092645180115
	}
	BodyFrame	{ EquatorJ2000 {} }
	UniformRotation  # approximately coplanar with satellite
	{
		Period	11.05
		Inclination	43.75
		AscendingNode	110.6
	}
	LunarLambert	1
	GeomAlbedo	0.142
	InfoURL	"https://en.wikipedia.org/wiki/229762_G%C7%83k%C3%BAn%C7%81%CA%BCh%C3%B2md%C3%ADm%C3%A0"
}

"G!o'e !Hu:229762 G!kun||'homdima I:G!kun||'homdima I" "Sol/G!kun||'homdima"
{
	Class	"minormoon"
	Mesh	"asteroid.cms"
	Texture	"asteroid.*"
	Color	[ 0.745 0.6 0.505 ]
	BlendTexture	true
	Radius	71
	OrbitFrame	{ EquatorJ2000 {} }
	EllipticalOrbit
	{
		Epoch	2457000.0  # 2014 Dec 08 12:00 UT
		Period	11.31473
		SemiMajorAxis	6035
		Eccentricity	0.0236
		Inclination	43.75
		MeanLongitude	344.0
		AscendingNode	110.6
		LongOfPericenter	91
	}
	BodyFrame	{ EquatorJ2000 {} }
	UniformRotation  # to match orbit
	{
		Epoch	2457000.0  # 2014 Dec 08 12:00 UT
		Inclination	43.75
		AscendingNode	110.6
		MeridianAngle	53.4
	}
	LunarLambert	1
	GeomAlbedo	0.142  # assume equal albedo as primary
	InfoURL	"https://en.wikipedia.org/wiki/229762_G%C7%83k%C3%BAn%C7%81%CA%BCh%C3%B2md%C3%ADm%C3%A0#Satellite"
}

# Rommel et al. (2023), A&A 678, A167
#   "A large topographic feature on the surface of the trans-Neptunian object
#   (307261) 2002 MS4 measured from stellar occultations"
#   https://ui.adsabs.harvard.edu/abs/2023A%26A...678A.167R/abstract
# Albedos from Helfenstein and Verbiscer (2025), Planet. Sci. J. 6, 144
#   "On Error Estimates for Hapke Photometric Model Parameters from
#   Disk-integrated Phase Curves of Airless Planetary Bodies"
#   https://ui.adsabs.harvard.edu/abs/2025PSJ.....6..144H/abstract
"307261 Máni:Máni:2002 MS4" "Sol"
{
	Class	"asteroid"
	Texture	"asteroid.*"
	Color	[ 0.329 0.328 0.317 ]
	BlendTexture	true
	SemiAxes	[ 412 412 385 ]  # projected
	OrbitFrame
	{
		EclipticJ2000	{ Center "SSB" }
	}
	EllipticalOrbit
	{
		Epoch	2451545.0  # 2000 Jan 01 12:00
		Period	269.4630937148678
		SemiMajorAxis	41.73702734140139
		Eccentricity	0.1452892533051482
		Inclination	17.69333610952009
		AscendingNode	216.0751360568072
		ArgOfPericenter	214.5764827965695
		MeanAnomaly	195.9176462145012
	}

	# Rotation period from Peng (2023)
	#   "Phase Dependent Variation in the Reflectivity of Kuiper Belt Object 2002 MS4"
	#   https://dspace.library.uvic.ca/handle/1828/15363
	BodyFrame	{ EquatorJ2000 {} }
	UniformRotation
	{
		Period	14.251
		Inclination	121  # assume equator-on orientation on 2020-08-08
		AscendingNode	106  # position angle = 121° ± 16°
	}
	LunarLambert	1
	# GeomAlbedo	0.105
	Reflectivity	0.039  # Bond albedo
	InfoURL	"https://en.wikipedia.org/wiki/307261_Máni"
}

